ZACUBE-1 (TSHEPISOSAT)  
1 39417U 13066B   26064.12813661  .00006431  00000+0  50899-3 0  9993
2 39417  97.8184  25.9295 0041858 235.3351 124.3924 15.00268225665129
WNISAT-1                
1 39423U 13066H   26063.68920941  .00002582  00000+0  47822-3 0  9995
2 39423  97.7030 220.3631 0163223 200.6278 158.8284 14.57849387651507
TRITON-1                
1 39427U 13066M   26064.28003314  .00003422  00000+0  41732-3 0  9990
2 39427  97.8303 336.4724 0089824 212.2277 147.3428 14.81167895658705
GOMX-1                  
1 39430U 13066Q   26064.26146503  .00002126  00000+0  32540-3 0  9997
2 39430  97.6566 271.2428 0130535  51.5982 309.6863 14.69076378654655
CUBEBUG-2 (LO-74)       
1 39440U 13066AA  26064.27408983  .00008426  00000+0  79081-3 0  9992
2 39440  97.8819  12.9402 0059233  13.7725 346.5093 14.92890152661485
NEE-02 KRYSAOR          
1 39441U 13066AB  26064.27098162  .00004034  00000+0  44759-3 0  9992
2 39441  97.8819   4.3116 0068067  51.2578 309.4694 14.86126542660764
FUNCUBE-1 (AO-73)       
1 39444U 13066AE  26063.39850331  .00015175  00000+0  97977-3 0  9999
2 39444  97.8175  32.8468 0036706 197.5791 162.4169 15.07790976663864
UWE-3                   
1 39446U 13066AG  26063.64687173  .00007547  00000+0  66020-3 0  9990
2 39446  97.8595  19.1594 0048758 309.8470  49.8465 14.96109228661947
BRITE-CA1 (TORONTO)     
1 40020U 14033L   26063.32853596  .00001935  00000+0  29920-3 0  9997
2 40020  97.9558 194.3075 0077710 252.3100 106.9613 14.72445502626784
DUCHIFAT-1              
1 40021U 14033M   26063.85634426  .00064489  00000+0  11792-2 0  9995
2 40021  98.0635 109.7165 0006543  98.1423 262.0569 15.49131837639521
NANOSATC-BR1            
1 40024U 14033Q   26064.00577244  .00021999  00000+0  80895-3 0  9990
2 40024  98.0838  87.3825 0004118 161.1057 199.0333 15.27906917638053
QB50P1                  
1 40025U 14033R   26064.22307744  .00013213  00000+0  68279-3 0  9993
2 40025  98.1001  68.2039 0007842 211.5570 148.5192 15.16402053637263
QB50P2                  
1 40032U 14033Y   26064.03577227  .00011328  00000+0  63473-3 0  9991
2 40032  98.0731  54.5726 0008151 155.9782 204.1830 15.13563218636907
PERSEUS-M2              
1 40037U 14033AD  26064.27689557  .00004211  00000+0  38892-3 0  9992
2 40037  97.9872  12.7990 0010178 288.3803  71.6309 14.95138407635254
PERSEUS-M1              
1 40039U 14033AF  26064.25732177  .00003950  00000+0  36429-3 0  9992
2 40039  97.9557   6.7755 0009919 285.3367  74.6756 14.95227142635109
POLYITAN-1              
1 40042U 14033AJ  26064.29084593  .00023714  00000+0  83407-3 0  9990
2 40042  98.1047  80.9818 0008990 140.8140 219.3751 15.29320860637694
